{
    "links": {
        "self": "http://www.neowsapp.com/rest/v1/neo/3733144?api_key=iIulBulltgU6a56xZRHN4H3l9WmuAYTsLGpBGhQ2"
    },
    "id": "3733144",
    "neo_reference_id": "3733144",
    "name": "(2015 VF1)",
    "designation": "2015 VF1",
    "nasa_jpl_url": "http://ssd.jpl.nasa.gov/sbdb.cgi?sstr=3733144",
    "absolute_magnitude_h": 23.8,
    "estimated_diameter": {
        "kilometers": {
            "estimated_diameter_min": 0.046190746,
            "estimated_diameter_max": 0.1032856481
        },
        "meters": {
            "estimated_diameter_min": 46.1907460282,
            "estimated_diameter_max": 103.2856480504
        },
        "miles": {
            "estimated_diameter_min": 0.0287015901,
            "estimated_diameter_max": 0.0641787064
        },
        "feet": {
            "estimated_diameter_min": 151.544447199,
            "estimated_diameter_max": 338.8636855496
        }
    },
    "is_potentially_hazardous_asteroid": false,
    "close_approach_data": [
        {
            "close_approach_date": "2015-11-01",
            "close_approach_date_full": "2015-Nov-01 19:58",
            "epoch_date_close_approach": 1446407880000,
            "relative_velocity": {
                "kilometers_per_second": "12.2998585661",
                "kilometers_per_hour": "44279.490838104",
                "miles_per_hour": "27513.5536265986"
            },
            "miss_distance": {
                "astronomical": "0.0448310113",
                "lunar": "17.4392633957",
                "kilometers": "6706623.800425931",
                "miles": "4167302.7891866078"
            },
            "orbiting_body": "Earth"
        }
    ],
    "orbital_data": {
        "orbit_id": "8",
        "orbit_determination_date": "2019-12-04 07:14:53",
        "first_observation_date": "2015-10-24",
        "last_observation_date": "2015-11-05",
        "data_arc_in_days": 12,
        "observations_used": 50,
        "orbit_uncertainty": "8",
        "minimum_orbit_intersection": ".0378263",
        "jupiter_tisserand_invariant": "3.782",
        "epoch_osculation": "2457324.5",
        "eccentricity": ".5368373029097488",
        "semi_major_axis": "1.876797593545564",
        "inclination": "5.153619252410725",
        "ascending_node_longitude": "17.42322480952755",
        "orbital_period": "939.1275557462499",
        "perihelion_distance": ".8692626353190563",
        "perihelion_argument": "75.62483042036565",
        "aphelion_distance": "2.884332551772071",
        "perihelion_time": "2457367.141629679059",
        "mean_anomaly": "343.653991845375",
        "mean_motion": ".3833345084991534",
        "equinox": "J2000",
        "orbit_class": {
            "orbit_class_type": "APO",
            "orbit_class_description": "Near-Earth asteroid orbits which cross the Earth’s orbit similar to that of 1862 Apollo",
            "orbit_class_range": "a (semi-major axis) > 1.0 AU; q (perihelion) < 1.017 AU"
        }
    },
    "is_sentry_object": false
}